ONEWEB-0098             
1 45442U 20020U   25335.20487917 -.00000379  00000+0 -11052-2 0  9990
2 45442  87.8872  60.4870 0001681 101.1957 258.9360 13.11417448276693
ONEWEB-0055             
1 45443U 20020V   25335.26422730 -.00000325  00000+0 -95415-3 0  9996
2 45443  87.8869  60.4759 0001707 102.0166 258.1154 13.11416771276676
ONEWEB-0093             
1 45444U 20020W   25335.23980159  .00000457  00000+0  12545-2 0  9994
2 45444  87.8871  60.4676 0001899 116.7102 243.4220 13.11415870276739
ONEWEB-0029             
1 45445U 20020X   25335.25575286 -.00000105  00000+0 -33105-3 0  9996
2 45445  87.8873  60.4769 0001809 106.1907 253.9421 13.11414153276712
ONEWEB-0068             
1 45446U 20020Y   25335.23953142  .00000472  00000+0  12963-2 0  9999
2 45446  87.8872  60.4692 0001827 107.2582 252.8746 13.11415117276650
ONEWEB-0046             
1 45447U 20020Z   25335.23118236  .00000565  00000+0  15585-2 0  9993
2 45447  87.8870  60.4787 0001657 112.6034 247.5269 13.11417676276661
ONEWEB-0063             
1 45448U 20020AA  25335.25998332 -.00000274  00000+0 -80784-3 0  9992
2 45448  87.8869  60.4709 0001542 110.9897 249.1396 13.11413534276753
ONEWEB-0019             
1 45449U 20020AB  25335.23301042  .00000565  00000+0  15553-2 0  9999
2 45449  87.8858  60.4867 0002056  99.3136 260.8225 13.11599709276596
